GOES 1 (SMS-C) [-]      
1 08366U 75100A   19027.45373300  .00000005  00000-0  00000-0 0  9995
2 08366  11.0029 311.3407 0006209 329.9834 245.8991  1.00303007158019
GOES 2 [-]              
1 10061U 77048A   19027.19360150 -.00000170  00000-0  00000-0 0  9997
2 10061  12.3594 320.8743 0018908 341.9636 251.7348  0.99401118 19451
GOES 3 [-]              
1 10953U 78062A   19027.01591541 -.00000028  00000-0  00000-0 0  9997
2 10953  12.5645 324.6558 0005666 346.9697 202.7447  0.99361908101725
GOES 4 [-]              
1 11964U 80074A   19027.39722109 -.00000257  00000-0  00000-0 0  9997
2 11964  13.4023 328.3856 0035831  26.8482 226.9077  0.99231311100666
GOES 5 [-]              
1 12472U 81049A   19027.51407973  .00000050  00000-0  00000-0 0  9998
2 12472  13.7873 338.8109 0005772 311.3157 246.2065  1.00310986 95794
GOES 6 [-]              
1 14050U 83041A   19027.48530748  .00000018  00000-0  00000-0 0  9993
2 14050  14.1144 343.7750 0003400 326.4476 222.0434  1.00304607188965
GOES 7 [-]              
1 17561U 87022A   19027.33737017 -.00000324  00000-0  00000-0 0  9999
2 17561  15.0386 359.7903 0008524 329.9329  26.9061  0.99895923100006
GOES 8 [-]              
1 23051U 94022A   19027.34027300 -.00000262  00000-0  00000-0 0  9997
2 23051  12.0521  33.6445 0009763 280.2661 266.9419  0.98907149 97447
GOES 9 [-]              
1 23581U 95025A   19027.31268237 -.00000247  00000-0  00000-0 0  9995
2 23581  11.5434  33.3720 0002605 306.7612 244.1207  0.98802370 86107
GOES 10 [-]             
1 24786U 97019A   19026.70685780 -.00000090  00000-0  00000-0 0  9992
2 24786  10.0134  38.6094 0027632 184.5127 175.5192  0.99124758 79322
GOES 11 [-]             
1 26352U 00022A   19027.57901405  .00000049  00000-0  00000+0 0  9994
2 26352   6.1383  68.8706 0006235 214.4879 292.5444  0.99040406 68272
GOES 12 [-]             
1 26871U 01031A   19027.62097459 -.00000053  00000-0  00000+0 0  9998
2 26871   7.3621  55.9663 0011426 250.7401 134.6170  0.99134805 63990
GOES 13 [B]             
1 29155U 06018A   19026.81667872 -.00000297  00000-0  00000-0 0  9999
2 29155   0.3424 101.7168 0008032 314.4211 303.9083  1.00268888 16329
GOES 14 [S]             
1 35491U 09033A   19026.93944362 -.00000106  00000-0  00000-0 0  9993
2 35491   0.0495 263.2652 0010000 338.9603 117.6431  1.00270794 35079
GOES 15 [+]             
1 36411U 10008A   19027.00478749  .00000038  00000-0  00000-0 0  9993
2 36411   0.0952 271.3679 0003667 322.4462 126.1219  1.00283525 32624
GOES 16 [+]             
1 41866U 16071A   19026.85929343 -.00000261  00000-0  00000-0 0  9991
2 41866   0.0188 116.2472 0000584 244.6073 359.1156  1.00271480  8067
GOES-S [+]              
1 43226U 18022A   19027.03110729  .00000084  00000-0  00000+0 0  9993
2 43226   0.0325  96.0575 0003563 272.2014 351.7167  1.00272215  3380
